QIANFAN-9               
1 60387U 24140J   25212.55297607  .00000145  00000+0  20618-3 0  9997
2 60387  88.9849 313.1976 0015303 218.7896 141.2158 13.50956456 49206
QIANFAN-10              
1 60388U 24140K   25212.55711635  .00000139  00000+0  19657-3 0  9994
2 60388  88.9858 312.5323 0014599 194.7094 165.3634 13.50958743 49594
QIANFAN-11              
1 60389U 24140L   25212.52004085  .00000152  00000+0  21684-3 0  9994
2 60389  88.9784 313.2226 0013362 217.6230 142.3988 13.50958907 49080
QIANFAN-12              
1 60390U 24140M   25212.46649287  .00000148  00000+0  21125-3 0  9993
2 60390  88.9828 313.2128 0011916 225.8420 134.1752 13.50958726 49152
QIANFAN-13              
1 60391U 24140N   25212.51177388  .00000137  00000+0  19397-3 0  9994
2 60391  88.9840 313.2915 0011667 228.5230 131.4920 13.50958553 49136
QIANFAN-14              
1 60392U 24140P   25212.53641486  .00000160  00000+0  22936-3 0  9991
2 60392  88.9819 313.2153 0015333 230.2014 129.7788 13.50959706 49145
QIANFAN-15              
1 60393U 24140Q   25212.54477734  .00000145  00000+0  20620-3 0  9997
2 60393  88.9842 313.1392 0011597 213.1338 146.9088 13.50956483 49225
QIANFAN-16              
1 60394U 24140R   25212.53240519  .00000165  00000+0  23755-3 0  9990
2 60394  88.9845 313.2564 0013155 233.6453 126.3485 13.50958814 49175
